SKYSAT-C1               
1 41601U 16040C   26159.03199683  .00009867  00000+0  28217-3 0  9997
2 41601  96.9568 191.2490 0004148  75.7609 284.4097 15.36146761556464
LAPAN-A3                
1 41603U 16040E   26159.24907610  .00003409  00000+0  10893-3 0  9996
2 41603  97.1490 155.6889 0011804  54.6180 305.6163 15.33047875553444
GAOFEN-3                
1 41727U 16049A   26159.27296390 -.00000070  00000+0 -80615-5 0  9995
2 41727  98.4016 167.1938 0001197  98.8930 261.2395 14.42214095517363
SKYSAT-C4               
1 41771U 16058B   26159.02634496  .00017080  00000+0  32478-3 0  9999
2 41771  96.9185 181.1836 0000834  93.5442 266.5905 15.48303074544056
SKYSAT-C5               
1 41772U 16058C   26159.10435249  .00008404  00000+0  25495-3 0  9995
2 41772  97.0477 200.1504 0002077   5.7480 354.3787 15.34341868542358
SKYSAT-C2               
1 41773U 16058D   26159.04431641  .00012607  00000+0  29876-3 0  9998
2 41773  97.0173 181.4849 0005128  90.2046 269.9789 15.41863485543640
SKYSAT-C3               
1 41774U 16058E   26159.05430529  .00025423  00000+0  42109-3 0  9998
2 41774  96.9014 190.2558 0001935  81.0427 279.1046 15.52149605544699
ALSAT-1B                
1 41785U 16059C   26159.26899777  .00000649  00000+0  11024-3 0  9993
2 41785  97.7756 168.4179 0007727 254.4205 105.6151 14.72269050519267
PATHFINDER 1            
1 41787U 16059E   26158.93262463  .00000667  00000+0  12494-3 0  9996
2 41787  97.8166 158.6265 0027192 234.1007 125.7674 14.67653090518352
SCATSAT 1               
1 41790U 16059H   26159.15076114  .00001109  00000+0  15246-3 0  9991
2 41790  98.1193 222.8235 0053288 277.3838  82.1319 14.79507199100256
GOKTURK 1A              
1 41875U 16073A   26159.28479633  .00000478  00000+0  10285-3 0  9994
2 41875  98.1256  54.0984 0001466  77.7066 282.4300 14.62768721507520
RESOURCESAT-2A          
1 41877U 16074A   26159.27302444 -.00000011  00000+0  15086-4 0  9990
2 41877  98.7520 232.8500 0003342 100.1256 260.0298 14.21613025493038
CARTOSAT-2D             
1 41948U 17008A   26159.33288260  .00004322  00000+0  20815-3 0  9996
2 41948  97.4108 218.8036 0003516 273.3166  86.7667 15.19267473516230
SENTINEL-2B             
1 42063U 17013A   26159.32636186  .00000145  00000+0  72057-4 0  9999
2 42063  98.5686 234.2257 0001216  85.8177 274.3145 14.30814784483371
CARTOSAT-2E             
1 42767U 17036C   26159.21875032  .00004543  00000+0  21872-3 0  9992
2 42767  97.4278 219.1687 0003181 359.5453   0.5778 15.19254765496782
FORMOSAT-5              
1 42920U 17049A   26159.22558494  .00000172  00000+0  54636-4 0  9997
2 42920  98.2253 234.7343 0012659 109.0386 251.2181 14.50895602465379
SENTINEL-5P             
1 42969U 17064A   26159.10918252  .00000061  00000+0  50057-4 0  9996
2 42969  98.7923 101.3052 0000994  81.6493 278.4795 14.19517516448272
SKYSAT-C11              
1 42987U 17068A   26158.93501589  .00028375  00000+0  38784-3 0  9991
2 42987  97.4344 307.3677 0001058  89.0702 271.0675 15.57416353481805
SKYSAT-C10              
1 42988U 17068B   26158.90250276  .00009313  00000+0  28119-3 0  9995
2 42988  97.4495 295.6613 0001249  89.9760 270.1626 15.34481998480938
SKYSAT-C9               
1 42989U 17068C   26158.95593904  .00013496  00000+0  32517-3 0  9993
2 42989  97.4416 296.5625 0008925 162.7776 197.3775 15.41334622481339
SKYSAT-C8               
1 42990U 17068D   26158.88789250  .00010641  00000+0  29815-3 0  9994
2 42990  97.4511 295.4111 0001565  98.3246 261.8176 15.36794419480883
SKYSAT-C7               
1 42991U 17068E   26159.07654344  .00011517  00000+0  32277-3 0  9991
2 42991  97.4524 296.5914 0006969 133.4077 226.7748 15.36745901480974
SKYSAT-C6               
1 42992U 17068F   26158.94995671  .00009723  00000+0  29742-3 0  9997
2 42992  97.4558 296.4664 0003894 162.0776 198.0605 15.34051610480902
CARTOSAT-2F             
1 43111U 18004A   26159.31644102  .00004754  00000+0  22843-3 0  9998
2 43111  97.4785 219.0382 0000065 336.3551  23.7680 15.19307443465989
GAOFEN-1 02             
1 43259U 18031A   26159.28500465  .00001191  00000+0  17858-3 0  9992
2 43259  98.0524 221.8366 0004350  53.4136 306.7473 14.76471275441389
GAOFEN-1 03             
1 43260U 18031B   26159.26318053  .00000761  00000+0  11673-3 0  9993
2 43260  98.0525 221.6742 0003826  96.6222 263.5423 14.76456590441377
GAOFEN-1 04             
1 43262U 18031D   26159.30667576  .00000626  00000+0  97303-4 0  9992
2 43262  98.0525 221.9070 0002225  90.1472 269.9993 14.76466771441378
SENTINEL-3B             
1 43437U 18039A   26159.14294896  .00000107  00000+0  62385-4 0  9993
2 43437  98.6250 226.8048 0000868  77.3993 282.7284 14.26739258422832
GAOFEN-5 01             
1 43461U 18043A   26159.15604283  .00000396  00000+0  91501-4 0  9993
2 43461  98.4565 130.5529 0003018  99.7496 260.4045 14.60599561430372
GAOFEN-6                
1 43484U 18048A   26159.32953910  .00000509  00000+0  79894-4 0  9993
2 43484  97.7757 222.3386 0011343 197.3585 162.7239 14.76622076432081
