OBJECT_NAME,OBJECT_ID,EPOCH,MEAN_MOTION,ECCENTRICITY,INCLINATION,RA_OF_ASC_NODE,ARG_OF_PERICENTER,MEAN_ANOMALY,EPHEMERIS_TYPE,CLASSIFICATION_TYPE,NORAD_CAT_ID,ELEMENT_SET_NO,REV_AT_EPOCH,BSTAR,MEAN_MOTION_DOT,MEAN_MOTION_DDOT
SKYSAT-C1,2016-040C,2026-06-08T00:46:04.526112,15.36146761,.00041489,96.9568,191.2490,75.7609,284.4097,0,U,41601,999,55646,.28216962E-3,.9867E-4,0
LAPAN-A3,2016-040E,2026-06-08T05:58:40.175040,15.33047875,.0011804,97.1490,155.6889,54.6180,305.6163,0,U,41603,999,55344,.10892551E-3,.3409E-4,0
GAOFEN-3,2016-049A,2026-06-08T06:33:04.080960,14.42214095,.00011971,98.4016,167.1938,98.8930,261.2395,0,U,41727,999,51736,-.806148E-5,-.7E-6,0
SKYSAT-C4,2016-058B,2026-06-08T00:37:56.204544,15.48303074,.00008346,96.9185,181.1836,93.5442,266.5905,0,U,41771,999,54405,.32477622E-3,.1708E-3,0
SKYSAT-C5,2016-058C,2026-06-08T02:30:16.055136,15.34341868,.00020779,97.0477,200.1504,5.7480,354.3787,0,U,41772,999,54235,.25494946E-3,.8404E-4,0
SKYSAT-C2,2016-058D,2026-06-08T01:03:48.937824,15.41863485,.00051289,97.0173,181.4849,90.2046,269.9789,0,U,41773,999,54364,.29875945E-3,.12607E-3,0
SKYSAT-C3,2016-058E,2026-06-08T01:18:11.977056,15.52149605,.00019356,96.9014,190.2558,81.0427,279.1046,0,U,41774,999,54469,.42109483E-3,.25423E-3,0
ALSAT-1B,2016-059C,2026-06-08T06:27:21.407328,14.72269050,.00077273,97.7756,168.4179,254.4205,105.6151,0,U,41785,999,51926,.11024001E-3,.649E-5,0
PATHFINDER 1,2016-059E,2026-06-07T22:22:58.768032,14.67653090,.00271929,97.8166,158.6265,234.1007,125.7674,0,U,41787,999,51835,.12494192E-3,.667E-5,0
SCATSAT 1,2016-059H,2026-06-08T03:37:05.762496,14.79507199,.0053288,98.1193,222.8235,277.3838,82.1319,0,U,41790,999,10025,.1524646E-3,.1109E-4,0
GOKTURK 1A,2016-073A,2026-06-08T06:50:06.402912,14.62768721,.00014669,98.1256,54.0984,77.7066,282.4300,0,U,41875,999,50752,.10285482E-3,.478E-5,0
RESOURCESAT-2A,2016-074A,2026-06-08T06:33:09.311616,14.21613025,.00033423,98.7520,232.8500,100.1256,260.0298,0,U,41877,999,49303,.15085863E-4,-.11E-6,0
CARTOSAT-2D,2017-008A,2026-06-08T07:59:21.056640,15.19267473,.0003516,97.4108,218.8036,273.3166,86.7667,0,U,41948,999,51623,.20814632E-3,.4322E-4,0
SENTINEL-2B,2017-013A,2026-06-08T07:49:57.664704,14.30814784,.00012161,98.5686,234.2257,85.8177,274.3145,0,U,42063,999,48337,.72057246E-4,.145E-5,0
CARTOSAT-2E,2017-036C,2026-06-08T05:15:00.027648,15.19254765,.00031813,97.4278,219.1687,359.5453,0.5778,0,U,42767,999,49678,.21872484E-3,.4543E-4,0
FORMOSAT-5,2017-049A,2026-06-08T05:24:50.538816,14.50895602,.00126594,98.2253,234.7343,109.0386,251.2181,0,U,42920,999,46537,.54636341E-4,.172E-5,0
SENTINEL-5P,2017-064A,2026-06-08T02:37:13.369728,14.19517516,.00009946,98.7923,101.3052,81.6493,278.4795,0,U,42969,999,44827,.50056961E-4,.61E-6,0
SKYSAT-C11,2017-068A,2026-06-07T22:26:25.372896,15.57416353,.00010582,97.4344,307.3677,89.0702,271.0675,0,U,42987,999,48180,.38783692E-3,.28375E-3,0
SKYSAT-C10,2017-068B,2026-06-07T21:39:36.238464,15.34481998,.00012496,97.4495,295.6613,89.9760,270.1626,0,U,42988,999,48093,.2811917E-3,.9313E-4,0
SKYSAT-C9,2017-068C,2026-06-07T22:56:33.133056,15.41334622,.00089253,97.4416,296.5625,162.7776,197.3775,0,U,42989,999,48133,.32517387E-3,.13496E-3,0
SKYSAT-C8,2017-068D,2026-06-07T21:18:33.912000,15.36794419,.00015651,97.4511,295.4111,98.3246,261.8176,0,U,42990,999,48088,.29815414E-3,.10641E-3,0
SKYSAT-C7,2017-068E,2026-06-08T01:50:13.353216,15.36745901,.00069698,97.4524,296.5914,133.4077,226.7748,0,U,42991,999,48097,.32276745E-3,.11517E-3,0
SKYSAT-C6,2017-068F,2026-06-07T22:47:56.259744,15.34051610,.00038945,97.4558,296.4664,162.0776,198.0605,0,U,42992,999,48090,.29741827E-3,.9723E-4,0
CARTOSAT-2F,2018-004A,2026-06-08T07:35:40.504128,15.19307443,.00000653,97.4785,219.0382,336.3551,23.7680,0,U,43111,999,46598,.22843354E-3,.4754E-4,0
GAOFEN-1 02,2018-031A,2026-06-08T06:50:24.401760,14.76471275,.00043507,98.0524,221.8366,53.4136,306.7473,0,U,43259,999,44138,.17858009E-3,.1191E-4,0
GAOFEN-1 03,2018-031B,2026-06-08T06:18:58.797792,14.76456590,.00038265,98.0525,221.6742,96.6222,263.5423,0,U,43260,999,44137,.11673372E-3,.761E-5,0
GAOFEN-1 04,2018-031D,2026-06-08T07:21:36.785664,14.76466771,.00022251,98.0525,221.9070,90.1472,269.9993,0,U,43262,999,44137,.97302894E-4,.626E-5,0
SENTINEL-3B,2018-039A,2026-06-08T03:25:50.790144,14.26739258,.00008687,98.6250,226.8048,77.3993,282.7284,0,U,43437,999,42283,.62384564E-4,.107E-5,0
GAOFEN-5 01,2018-043A,2026-06-08T03:44:42.100512,14.60599561,.00030188,98.4565,130.5529,99.7496,260.4045,0,U,43461,999,43037,.91500623E-4,.396E-5,0
GAOFEN-6,2018-048A,2026-06-08T07:54:32.178240,14.76622076,.00113431,97.7757,222.3386,197.3585,162.7239,0,U,43484,999,43208,.79893828E-4,.509E-5,0
